OBJECT_NAME,OBJECT_ID,EPOCH,MEAN_MOTION,ECCENTRICITY,INCLINATION,RA_OF_ASC_NODE,ARG_OF_PERICENTER,MEAN_ANOMALY,EPHEMERIS_TYPE,CLASSIFICATION_TYPE,NORAD_CAT_ID,ELEMENT_SET_NO,REV_AT_EPOCH,BSTAR,MEAN_MOTION_DOT,MEAN_MOTION_DDOT
DUBAISAT-1,2009-041B,2026-06-23T22:33:42.427296,14.75132065,.00114107,98.0058,308.1239,54.3720,305.8550,0,U,35682,999,90609,.10674205E-3,.67E-5,0
OCEANSAT-2,2009-051A,2026-06-24T06:38:22.367328,13.99662291,.00157821,98.2321,161.4208,214.7601,145.2535,0,U,35931,999,88032,-.12532584E-3,-.221E-5,0
WORLDVIEW-2 (WV-2),2009-055A,2026-06-24T06:16:39.864000,14.37901209,.00041572,98.4735,248.6136,185.4008,174.7135,0,U,35946,999,87666,.41905881E-4,.83E-6,0
SMOS,2009-059A,2026-06-24T06:40:25.516704,14.39775889,.00013196,98.4427,2.5091,88.3824,271.7516,0,U,36036,999,87447,.81337932E-4,.211E-5,0
YAOGAN-7,2009-069A,2026-06-24T04:43:59.102976,14.78015897,.00251072,98.0066,61.0207,19.8938,340.3246,0,U,36110,999,89066,.60501707E-4,.386E-5,0
TANDEM-X,2010-030A,2026-06-23T10:46:51.702528,15.19147870,.00018039,97.4453,182.0670,99.4957,260.6481,0,U,36605,999,88759,.13841893E-4,.224E-5,0
CARTOSAT-2B,2010-035A,2026-06-24T07:25:55.183872,14.78669582,.0011829,97.9951,225.8143,160.9098,199.2559,0,U,36795,999,86090,.10959765E-3,.752E-5,0
YAOGAN-10,2010-038A,2026-06-24T08:20:42.690912,14.85366610,.00016631,97.8978,198.6949,85.7455,285.0655,0,U,36834,999,85827,.16699695E-3,.1383E-4,0
COSMO-SKYMED 4,2010-060A,2026-06-24T06:17:44.059200,14.82156828,.00014139,97.8894,358.7593,86.3885,273.7489,0,U,37216,999,84561,.28613396E-4,.176E-5,0
RESOURCESAT-2,2011-015A,2026-06-24T06:26:00.516192,14.21601279,.00104173,98.7641,242.6610,232.9959,127.0265,0,U,37387,999,78718,.51016209E-4,.68E-6,0
HAIYANG-2A,2011-043A,2026-06-24T12:53:17.480832,13.74171469,.0005251,99.3400,178.0505,77.3070,282.8666,0,U,37781,999,74766,.63362E-4,.16E-6,0
RASAT,2011-044D,2026-06-24T06:28:32.243232,14.68171902,.00207775,98.0573,266.5587,166.2716,278.7588,0,U,37791,999,79422,.72226463E-4,.368E-5,0
SRMSAT,2011-058D,2026-06-24T05:42:03.366144,14.11576866,.00117077,19.9735,16.7943,281.6878,234.4486,0,U,37841,999,75881,.51087175E-4,.359E-5,0
PLEIADES 1A,2011-076F,2026-06-24T07:57:37.259136,14.58534686,.00017506,98.1972,250.3389,92.3806,344.2670,0,U,38012,999,77303,.51060469E-4,.192E-5,0
ZIYUAN 1-02C (ZY 1-02C),2011-079A,2026-06-24T07:35:09.693024,14.38219253,.00052071,98.4068,242.4758,291.1124,157.4406,0,U,38038,999,76023,.689139E-4,.166E-5,0
ARIRANG-3 (KOMPSAT-3),2012-025B,2026-06-24T06:52:19.826112,14.62211479,.00068105,98.1173,132.6238,91.6048,268.5933,0,U,38338,999,75238,.78052173E-4,.347E-5,0
EXACTVIEW-1 (ADS-1B),2012-039C,2026-06-24T04:36:42.526368,14.24986367,.0011499,98.9784,292.7408,147.1161,213.0735,0,U,38709,999,72370,.57389546E-4,.88E-6,0
SPOT 6,2012-047A,2026-06-24T12:54:57.686688,14.58526591,.0001288,98.2122,242.7619,81.1665,278.9680,0,U,38755,999,73412,.54339E-4,.207E-5,0
PLEIADES 1B,2012-068A,2026-06-24T06:47:03.654816,14.58564050,.00016791,98.1942,250.2368,89.2865,270.8526,0,U,39019,999,72188,.47813332E-4,.177E-5,0
GOKTURK 2,2012-073A,2026-06-24T06:27:18.130176,14.75548745,.00013451,97.6824,12.3452,55.8055,304.3282,0,U,39030,999,72555,.69780802E-4,.428E-5,0
LANDSAT 8,2013-008A,2026-06-24T05:38:33.383904,14.57098533,.00013513,98.2299,245.2866,93.7146,266.4207,0,U,39084,999,69892,.64696124E-4,.246E-5,0
SARAL,2013-009A,2026-06-24T05:36:11.780352,14.32857446,.00006422,98.5559,1.7113,250.1647,109.9468,0,U,39086,999,69661,.42791526E-4,.73E-6,0
GAOFEN-1,2013-018A,2026-06-24T07:32:16.735776,14.76543867,.00157946,97.9091,247.2375,241.2447,118.7177,0,U,39150,999,70929,.91598264E-4,.589E-5,0
VNREDSAT 1,2013-021B,2026-06-24T07:54:33.141600,14.64863099,.0001744,97.9078,228.4722,87.2349,272.9054,0,U,39160,999,70133,.92317812E-4,.448E-5,0
ARIRANG-5 (KOMPSAT-5),2013-042A,2026-06-24T06:46:54.957792,15.04501822,.00051886,97.6198,1.8828,104.7742,255.4059,0,U,39227,999,70492,.25051517E-4,.29E-5,0
SKYSAT-A,2013-066C,2026-06-24T03:15:06.869088,15.13007228,.00197207,97.3813,224.3113,291.6338,68.2793,0,U,39418,999,68953,.14636827E-3,.2531E-4,0
DUBAISAT-2,2013-066D,2026-06-24T07:01:48.554112,15.10229000,.00117137,97.4572,165.2507,19.1199,341.0468,0,U,39419,999,68746,.19776686E-3,.3175E-4,0
GPM-CORE,2014-009C,2026-06-24T04:50:43.806624,15.44703934,.00115511,64.9717,284.6315,254.3192,105.6675,0,U,39574,999,69889,.21289718E-3,.9773E-4,0
SENTINEL-1A,2014-016A,2026-06-24T07:02:12.683040,14.59201169,.00013748,98.1784,182.7222,81.6349,278.5007,0,U,39634,999,65105,.34712491E-4,.118E-5,0
KAZEOSAT 1,2014-024A,2026-06-24T07:22:11.114112,14.42081960,.00012499,98.3202,247.5777,77.1529,282.9800,0,U,39731,999,63958,.2143736E-5,-.36E-6,0
