DUBAISAT-1              
1 35682U 09041B   26174.94007439  .00000670  00000+0  10674-3 0  9997
2 35682  98.0058 308.1239 0011410  54.3720 305.8550 14.75132065906094
OCEANSAT-2              
1 35931U 09051A   26175.27664777 -.00000221  00000+0 -12533-3 0  9996
2 35931  98.2321 161.4208 0015782 214.7601 145.2535 13.99662291880328
WORLDVIEW-2 (WV-2)      
1 35946U 09055A   26175.26157250  .00000083  00000+0  41906-4 0  9999
2 35946  98.4735 248.6136 0004157 185.4008 174.7135 14.37901209876665
SMOS                    
1 36036U 09059A   26175.27807311  .00000211  00000+0  81338-4 0  9991
2 36036  98.4427   2.5091 0001319  88.3824 271.7516 14.39775889874478
YAOGAN-7                
1 36110U 09069A   26175.19721184  .00000386  00000+0  60502-4 0  9992
2 36110  98.0066  61.0207 0025107  19.8938 340.3246 14.78015897890662
TANDEM-X                
1 36605U 10030A   26174.44920952  .00000224  00000+0  13842-4 0  9998
2 36605  97.4453 182.0670 0001803  99.4957 260.6481 15.19147870887590
CARTOSAT-2B             
1 36795U 10035A   26175.30966648  .00000752  00000+0  10960-3 0  9994
2 36795  97.9951 225.8143 0011829 160.9098 199.2559 14.78669582860900
YAOGAN-10               
1 36834U 10038A   26175.34771633  .00001383  00000+0  16700-3 0  9992
2 36834  97.8978 198.6949 0001663  85.7455 285.0655 14.85366610858271
COSMO-SKYMED 4          
1 37216U 10060A   26175.26231550  .00000176  00000+0  28613-4 0  9998
2 37216  97.8894 358.7593 0001413  86.3885 273.7489 14.82156828845612
RESOURCESAT-2           
1 37387U 11015A   26175.26806153  .00000068  00000+0  51016-4 0  9998
2 37387  98.7641 242.6610 0010417 232.9959 127.0265 14.21601279787185
HAIYANG-2A              
1 37781U 11043A   26175.53700788  .00000016  00000+0  63362-4 0  9994
2 37781  99.3400 178.0505 0005251  77.3070 282.8666 13.74171469747667
RASAT                   
1 37791U 11044D   26175.26981763  .00000368  00000+0  72226-4 0  9999
2 37791  98.0573 266.5587 0020777 166.2716 278.7588 14.68171902794220
SRMSAT                  
1 37841U 11058D   26175.23753896  .00000359  00000+0  51087-4 0  9993
2 37841  19.9735  16.7943 0011707 281.6878 234.4486 14.11576866758810
PLEIADES 1A             
1 38012U 11076F   26175.33168124  .00000192  00000+0  51060-4 0  9995
2 38012  98.1972 250.3389 0001750  92.3806 344.2670 14.58534686773039
ZIYUAN 1-02C (ZY 1-02C) 
1 38038U 11079A   26175.31608441  .00000166  00000+0  68914-4 0  9992
2 38038  98.4068 242.4758 0005207 291.1124 157.4406 14.38219253760238
ARIRANG-3 (KOMPSAT-3)   
1 38338U 12025B   26175.28634058  .00000347  00000+0  78052-4 0  9991
2 38338  98.1173 132.6238 0006810  91.6048 268.5933 14.62211479752382
EXACTVIEW-1 (ADS-1B)    
1 38709U 12039C   26175.19215887  .00000088  00000+0  57390-4 0  9997
2 38709  98.9784 292.7408 0011499 147.1161 213.0735 14.24986367723701
SPOT 6                  
1 38755U 12047A   26175.53816767  .00000207  00000+0  54339-4 0  9992
2 38755  98.2122 242.7619 0001288  81.1665 278.9680 14.58526591734124
PLEIADES 1B             
1 39019U 12068A   26175.28268119  .00000177  00000+0  47813-4 0  9998
2 39019  98.1942 250.2368 0001679  89.2865 270.8526 14.58564050721888
GOKTURK 2               
1 39030U 12073A   26175.26895984  .00000428  00000+0  69781-4 0  9998
2 39030  97.6824  12.3452 0001345  55.8055 304.3282 14.75548745725557
LANDSAT 8               
1 39084U 13008A   26175.23510861  .00000246  00000+0  64696-4 0  9999
2 39084  98.2299 245.2866 0001351  93.7146 266.4207 14.57098533698924
SARAL                   
1 39086U 13009A   26175.23346968  .00000073  00000+0  42792-4 0  9998
2 39086  98.5559   1.7113 0000642 250.1647 109.9468 14.32857446696618
GAOFEN-1                
1 39150U 13018A   26175.31408259  .00000589  00000+0  91598-4 0  9991
2 39150  97.9091 247.2375 0015794 241.2447 118.7177 14.76543867709295
VNREDSAT 1              
1 39160U 13021B   26175.32955025  .00000448  00000+0  92318-4 0  9990
2 39160  97.9078 228.4722 0001744  87.2349 272.9054 14.64863099701330
ARIRANG-5 (KOMPSAT-5)   
1 39227U 13042A   26175.28258053  .00000290  00000+0  25052-4 0  9995
2 39227  97.6198   1.8828 0005188 104.7742 255.4059 15.04501822704929
SKYSAT-A                
1 39418U 13066C   26175.13549617  .00002531  00000+0  14637-3 0  9992
2 39418  97.3813 224.3113 0019720 291.6338  68.2793 15.13007228689530
DUBAISAT-2              
1 39419U 13066D   26175.29292308  .00003175  00000+0  19777-3 0  9997
2 39419  97.4572 165.2507 0011713  19.1199 341.0468 15.10229000687468
GPM-CORE                
1 39574U 14009C   26175.20189591  .00009773  00000+0  21290-3 0  9990
2 39574  64.9717 284.6315 0011551 254.3192 105.6675 15.44703934698892
SENTINEL-1A             
1 39634U 14016A   26175.29320235  .00000118  00000+0  34712-4 0  9994
2 39634  98.1784 182.7222 0001374  81.6349 278.5007 14.59201169651058
KAZEOSAT 1              
1 39731U 14024A   26175.30707308 -.00000036  00000+0  21437-5 0  9994
2 39731  98.3202 247.5777 0001249  77.1529 282.9800 14.42081960639580
